0 SKYNET 4A
1 20401U 90001A   13283.87019389  .00000044  00000-0  10000-3 0  6145
2 20401 012.3094 025.7501 0012925 183.7791 176.2098 00.98995444 83010
0 SKYNET 4A
1 20401U 90001A   13286.90048630 -.00000004  00000-0  10000-3 0  6151
2 20401 012.3137 025.7190 0012993 183.1157 176.8450 00.98995966 83047
0 SKYNET 4A
1 20401U 90001A   13287.91064115 -.00000025  00000-0  10000-3 0  6163
2 20401 012.3142 025.7091 0013355 181.7181 178.2788 00.98997045 83058
0 SKYNET 4A
1 20401U 90001A   13292.96094052 -.00000144  00000-0  10000-3 0  6170
2 20401 012.3201 025.6591 0013437 181.7882 178.1692 00.98999090 83108
0 SKYNET 4A
1 20401U 90001A   13294.98108702 -.00000187  00000-0  10000-3 0  6180
2 20401 012.3224 025.6390 0013454 181.6971 178.2638 00.98999597 83122
